LANDSAT 8               
1 39084U 13008A   20139.87039064  .00000014  00000-0  13303-4 0  9997
2 39084  98.2263 209.9340 0001289  72.8656 287.2674 14.57107633386399
